ATLAS CENTAUR 2         
1 00694U 63047A   26038.21710111  .00001693  00000+0  19394-3 0  9999
2 00694  30.3559   5.9259 0548112 171.7742 189.2282 14.11982932127312
THOR AGENA D R/B        
1 00733U 64002A   26038.65901251  .00000330  00000+0  13496-3 0  9994
2 00733  99.1229  50.3611 0032679 347.6897  12.3484 14.34001395233992
SL-3 R/B                
1 00877U 64053B   26038.44367723  .00000477  00000+0  11660-3 0  9999
2 00877  65.0762  59.9091 0078247 301.8273  57.5224 14.61336085262377
SL-8 R/B                
1 02802U 67045B   26038.47178765  .00000392  00000+0  11607-3 0  9999
2 02802  74.0101  44.5205 0063052  58.4343 302.2949 14.45592902 84653
SL-8 R/B                
1 03230U 68040B   26038.62639563  .00004553  00000+0  33870-3 0  9995
2 03230  74.0325  15.1078 0025411 207.8044 152.1788 15.03029072 85498
OAO 2                   
1 03597U 68110A   26038.15237998  .00000399  00000+0  11272-3 0  9999
2 03597  34.9936  75.7156 0005968 309.3087  50.7074 14.47289100 14676
ISIS 1                  
1 03669U 69009A   26038.80233771  .00000421  00000+0  28784-3 0  9996
2 03669  88.4554 158.5650 1707826 149.4656 221.8121 11.30401680345155
SERT 2                  
1 04327U 70009A   26038.87740500  .00000054  00000+0  13076-3 0  9990
2 04327  99.2722 343.6087 0004050 237.1241 192.5529 13.58726861775840
SL-3 R/B                
1 05118U 71028B   26038.76250954  .00039984  00000+0  51299-3 0  9991
2 05118  81.2348  88.9296 0017531  39.9394 320.3144 15.58765641984005
ASTEX 1                 
1 05560U 71089A   26038.81838363  .00000829  00000+0  21091-3 0  9994
2 05560  92.7152 142.0952 0015634 177.3911 182.7380 14.50734403857971
SL-8 R/B                
1 05730U 71119B   26038.79823947  .00013763  00000+0  71414-3 0  9991
2 05730  73.8855 231.5552 0553841 204.3224 153.0866 14.36943423651199
OAO 3 (COPERNICUS)      
1 06153U 72065A   26038.52131752  .00000557  00000+0  11875-3 0  9991
2 06153  35.0055 109.1910 0007260 274.3063 212.6201 14.59971071841782
