CCSDS_OMM_VERS = 2.0
CREATION_DATE  = 
ORIGINATOR     = 

OBJECT_NAME    = ATLAS CENTAUR 2
OBJECT_ID      = 1963-047A
CENTER_NAME    = EARTH
REF_FRAME      = TEME
TIME_SYSTEM    = UTC
MEAN_ELEMENT_THEORY = SGP/SGP4

EPOCH          = 2026-02-07T05:12:37.535904
MEAN_MOTION    = 14.11982932
ECCENTRICITY   = .0548112
INCLINATION    = 30.3559
RA_OF_ASC_NODE = 5.9259
ARG_OF_PERICENTER = 171.7742
MEAN_ANOMALY   = 189.2282

EPHEMERIS_TYPE = 0
CLASSIFICATION_TYPE = U
NORAD_CAT_ID   = 694
ELEMENT_SET_NO = 999
REV_AT_EPOCH   = 12731
BSTAR          = .19394E-3
MEAN_MOTION_DOT = .1693E-4
MEAN_MOTION_DDOT = 0

CCSDS_OMM_VERS = 2.0
CREATION_DATE  = 
ORIGINATOR     = 

OBJECT_NAME    = THOR AGENA D R/B
OBJECT_ID      = 1964-002A
CENTER_NAME    = EARTH
REF_FRAME      = TEME
TIME_SYSTEM    = UTC
MEAN_ELEMENT_THEORY = SGP/SGP4

EPOCH          = 2026-02-07T15:48:58.680864
MEAN_MOTION    = 14.34001395
ECCENTRICITY   = .0032679
INCLINATION    = 99.1229
RA_OF_ASC_NODE = 50.3611
ARG_OF_PERICENTER = 347.6897
MEAN_ANOMALY   = 12.3484

EPHEMERIS_TYPE = 0
CLASSIFICATION_TYPE = U
NORAD_CAT_ID   = 733
ELEMENT_SET_NO = 999
REV_AT_EPOCH   = 23399
BSTAR          = .13496E-3
MEAN_MOTION_DOT = .33E-5
MEAN_MOTION_DDOT = 0

CCSDS_OMM_VERS = 2.0
CREATION_DATE  = 
ORIGINATOR     = 

OBJECT_NAME    = SL-3 R/B
OBJECT_ID      = 1964-053B
CENTER_NAME    = EARTH
REF_FRAME      = TEME
TIME_SYSTEM    = UTC
MEAN_ELEMENT_THEORY = SGP/SGP4

EPOCH          = 2026-02-07T10:38:53.712672
MEAN_MOTION    = 14.61336085
ECCENTRICITY   = .00782475
INCLINATION    = 65.0762
RA_OF_ASC_NODE = 59.9091
ARG_OF_PERICENTER = 301.8273
MEAN_ANOMALY   = 57.5224

EPHEMERIS_TYPE = 0
CLASSIFICATION_TYPE = U
NORAD_CAT_ID   = 877
ELEMENT_SET_NO = 999
REV_AT_EPOCH   = 26237
BSTAR          = .11659829E-3
MEAN_MOTION_DOT = .477E-5
MEAN_MOTION_DDOT = 0

CCSDS_OMM_VERS = 2.0
CREATION_DATE  = 
ORIGINATOR     = 

OBJECT_NAME    = SL-8 R/B
OBJECT_ID      = 1967-045B
CENTER_NAME    = EARTH
REF_FRAME      = TEME
TIME_SYSTEM    = UTC
MEAN_ELEMENT_THEORY = SGP/SGP4

EPOCH          = 2026-02-07T11:19:22.452960
MEAN_MOTION    = 14.45592902
ECCENTRICITY   = .00630527
INCLINATION    = 74.0101
RA_OF_ASC_NODE = 44.5205
ARG_OF_PERICENTER = 58.4343
MEAN_ANOMALY   = 302.2949

EPHEMERIS_TYPE = 0
CLASSIFICATION_TYPE = U
NORAD_CAT_ID   = 2802
ELEMENT_SET_NO = 999
REV_AT_EPOCH   = 8465
BSTAR          = .11607478E-3
MEAN_MOTION_DOT = .392E-5
MEAN_MOTION_DDOT = 0

CCSDS_OMM_VERS = 2.0
CREATION_DATE  = 
ORIGINATOR     = 

OBJECT_NAME    = SL-8 R/B
OBJECT_ID      = 1968-040B
CENTER_NAME    = EARTH
REF_FRAME      = TEME
TIME_SYSTEM    = UTC
MEAN_ELEMENT_THEORY = SGP/SGP4

EPOCH          = 2026-02-07T15:02:00.582432
MEAN_MOTION    = 15.03029072
ECCENTRICITY   = .0025411
INCLINATION    = 74.0325
RA_OF_ASC_NODE = 15.1078
ARG_OF_PERICENTER = 207.8044
MEAN_ANOMALY   = 152.1788

EPHEMERIS_TYPE = 0
CLASSIFICATION_TYPE = U
NORAD_CAT_ID   = 3230
ELEMENT_SET_NO = 999
REV_AT_EPOCH   = 8549
BSTAR          = .3387E-3
MEAN_MOTION_DOT = .4553E-4
MEAN_MOTION_DDOT = 0

CCSDS_OMM_VERS = 2.0
CREATION_DATE  = 
ORIGINATOR     = 

OBJECT_NAME    = OAO 2
OBJECT_ID      = 1968-110A
CENTER_NAME    = EARTH
REF_FRAME      = TEME
TIME_SYSTEM    = UTC
MEAN_ELEMENT_THEORY = SGP/SGP4

EPOCH          = 2026-02-07T03:39:25.630272
MEAN_MOTION    = 14.47289100
ECCENTRICITY   = .00059689
INCLINATION    = 34.9936
RA_OF_ASC_NODE = 75.7156
ARG_OF_PERICENTER = 309.3087
MEAN_ANOMALY   = 50.7074

EPHEMERIS_TYPE = 0
CLASSIFICATION_TYPE = U
NORAD_CAT_ID   = 3597
ELEMENT_SET_NO = 999
REV_AT_EPOCH   = 1467
BSTAR          = .11272369E-3
MEAN_MOTION_DOT = .399E-5
MEAN_MOTION_DDOT = 0

CCSDS_OMM_VERS = 2.0
CREATION_DATE  = 
ORIGINATOR     = 

OBJECT_NAME    = ISIS 1
OBJECT_ID      = 1969-009A
CENTER_NAME    = EARTH
REF_FRAME      = TEME
TIME_SYSTEM    = UTC
MEAN_ELEMENT_THEORY = SGP/SGP4

EPOCH          = 2026-02-07T19:15:21.978144
MEAN_MOTION    = 11.30401680
ECCENTRICITY   = .1707826
INCLINATION    = 88.4554
RA_OF_ASC_NODE = 158.5650
ARG_OF_PERICENTER = 149.4656
MEAN_ANOMALY   = 221.8121

EPHEMERIS_TYPE = 0
CLASSIFICATION_TYPE = U
NORAD_CAT_ID   = 3669
ELEMENT_SET_NO = 999
REV_AT_EPOCH   = 34515
BSTAR          = .28784E-3
MEAN_MOTION_DOT = .421E-5
MEAN_MOTION_DDOT = 0

CCSDS_OMM_VERS = 2.0
CREATION_DATE  = 
ORIGINATOR     = 

OBJECT_NAME    = SERT 2
OBJECT_ID      = 1970-009A
CENTER_NAME    = EARTH
REF_FRAME      = TEME
TIME_SYSTEM    = UTC
MEAN_ELEMENT_THEORY = SGP/SGP4

EPOCH          = 2026-02-07T21:03:27.792000
MEAN_MOTION    = 13.58726861
ECCENTRICITY   = .000405
INCLINATION    = 99.2722
RA_OF_ASC_NODE = 343.6087
ARG_OF_PERICENTER = 237.1241
MEAN_ANOMALY   = 192.5529

EPHEMERIS_TYPE = 0
CLASSIFICATION_TYPE = U
NORAD_CAT_ID   = 4327
ELEMENT_SET_NO = 999
REV_AT_EPOCH   = 77584
BSTAR          = .13076E-3
MEAN_MOTION_DOT = .54E-6
MEAN_MOTION_DDOT = 0

CCSDS_OMM_VERS = 2.0
CREATION_DATE  = 
ORIGINATOR     = 

OBJECT_NAME    = SL-3 R/B
OBJECT_ID      = 1971-028B
CENTER_NAME    = EARTH
REF_FRAME      = TEME
TIME_SYSTEM    = UTC
MEAN_ELEMENT_THEORY = SGP/SGP4

EPOCH          = 2026-02-07T18:18:00.824256
MEAN_MOTION    = 15.58765641
ECCENTRICITY   = .0017531
INCLINATION    = 81.2348
RA_OF_ASC_NODE = 88.9296
ARG_OF_PERICENTER = 39.9394
MEAN_ANOMALY   = 320.3144

EPHEMERIS_TYPE = 0
CLASSIFICATION_TYPE = U
NORAD_CAT_ID   = 5118
ELEMENT_SET_NO = 999
REV_AT_EPOCH   = 98400
BSTAR          = .51299E-3
MEAN_MOTION_DOT = .39984E-3
MEAN_MOTION_DDOT = 0

CCSDS_OMM_VERS = 2.0
CREATION_DATE  = 
ORIGINATOR     = 

OBJECT_NAME    = ASTEX 1
OBJECT_ID      = 1971-089A
CENTER_NAME    = EARTH
REF_FRAME      = TEME
TIME_SYSTEM    = UTC
MEAN_ELEMENT_THEORY = SGP/SGP4

EPOCH          = 2026-02-07T19:38:28.345632
MEAN_MOTION    = 14.50734403
ECCENTRICITY   = .0015634
INCLINATION    = 92.7152
RA_OF_ASC_NODE = 142.0952
ARG_OF_PERICENTER = 177.3911
MEAN_ANOMALY   = 182.7380

EPHEMERIS_TYPE = 0
CLASSIFICATION_TYPE = U
NORAD_CAT_ID   = 5560
ELEMENT_SET_NO = 999
REV_AT_EPOCH   = 85797
BSTAR          = .21091E-3
MEAN_MOTION_DOT = .829E-5
MEAN_MOTION_DDOT = 0

CCSDS_OMM_VERS = 2.0
CREATION_DATE  = 
ORIGINATOR     = 

OBJECT_NAME    = SL-8 R/B
OBJECT_ID      = 1971-119B
CENTER_NAME    = EARTH
REF_FRAME      = TEME
TIME_SYSTEM    = UTC
MEAN_ELEMENT_THEORY = SGP/SGP4

EPOCH          = 2026-02-07T19:09:27.890208
MEAN_MOTION    = 14.36943423
ECCENTRICITY   = .0553841
INCLINATION    = 73.8855
RA_OF_ASC_NODE = 231.5552
ARG_OF_PERICENTER = 204.3224
MEAN_ANOMALY   = 153.0866

EPHEMERIS_TYPE = 0
CLASSIFICATION_TYPE = U
NORAD_CAT_ID   = 5730
ELEMENT_SET_NO = 999
REV_AT_EPOCH   = 65119
BSTAR          = .71414E-3
MEAN_MOTION_DOT = .13763E-3
MEAN_MOTION_DDOT = 0

CCSDS_OMM_VERS = 2.0
CREATION_DATE  = 
ORIGINATOR     = 

OBJECT_NAME    = OAO 3 (COPERNICUS)
OBJECT_ID      = 1972-065A
CENTER_NAME    = EARTH
REF_FRAME      = TEME
TIME_SYSTEM    = UTC
MEAN_ELEMENT_THEORY = SGP/SGP4

EPOCH          = 2026-02-07T12:30:41.833728
MEAN_MOTION    = 14.59971071
ECCENTRICITY   = .00072609
INCLINATION    = 35.0055
RA_OF_ASC_NODE = 109.1910
ARG_OF_PERICENTER = 274.3063
MEAN_ANOMALY   = 212.6201

EPHEMERIS_TYPE = 0
CLASSIFICATION_TYPE = U
NORAD_CAT_ID   = 6153
ELEMENT_SET_NO = 999
REV_AT_EPOCH   = 84178
BSTAR          = .11875303E-3
MEAN_MOTION_DOT = .557E-5
MEAN_MOTION_DDOT = 0

